STRIX-4                 
1 60352U 24137A   26068.65404516  .00020530  00000+0  71820-3 0  9996
2 60352  43.0134 129.8162 0016840   5.2738 354.8289 15.29026223 88766
STARLINK-35175          
1 65929U 25225V   26068.52822907  .00028395  00000+0  96737-3 0  9995
2 65929  53.1600 166.4090 0000980  69.0864 291.0242 15.30192886 24384
